DONGPO 09               
1 54685U 22167D   26036.84021159  .00027074  00000+0  85137-3 0  9999
2 54685  97.6762 202.3930 0002336 215.5902 144.5184 15.32940845175308
DONGPO 08               
1 54686U 22167E   26036.86697318  .00024620  00000+0  83205-3 0  9996
2 54686  97.6717 200.1904 0007950 272.2689  87.7641 15.30614891175218
2022-167F               
1 54687U 22167F   26036.85949538  .00114288  00000+0  12250-2 0  9991
2 54687  97.6208 211.9647 0002266 170.4284 189.7017 15.63449603176150
DONGPO 10               
1 54689U 22167H   26036.87332144  .00024715  00000+0  81716-3 0  9993
2 54689  97.6802 201.8434 0004819 213.0695 147.0244 15.31341704175246
JILIN-1 GAOFEN 03D48    
1 54695U 22167P   26036.86572219  .00027736  00000+0  89863-3 0  9995
2 54695  97.6734 201.1875 0006231 220.0986 139.9795 15.31963013175266
STAR VIBE               
1 55009U 23001A   26036.84958998  .00029181  00000+0  76282-3 0  9990
2 55009  97.3357 101.0312 0005304 217.5268 142.5608 15.38707306172002
BRO-8                   
1 55011U 23001C   26036.84220282  .00050730  00000+0  12180-2 0  9991
2 55011  97.3413 100.7779 0005938 231.2424 128.8293 15.41179836171923
CONNECTA T1.2           
1 55012U 23001D   26036.63596711  .00030696  00000+0  69420-3 0  9991
2 55012  97.3455 105.6906 0006291 206.3645 153.7284 15.43085610172215
BIRKELAND               
1 55015U 23001G   26036.85790847  .00017416  00000+0  47549-3 0  9997
2 55015  97.3508 104.6354 0006455 205.7483 154.3442 15.37462108172158
ION SCV-008             
1 55051U 23001AU  26036.77906834  .00015680  00000+0  59723-3 0  9991
2 55051  97.5714 131.1100 0016709 114.4019 245.8965 15.26684227171271
ION SCV-007             
1 55060U 23001BD  26036.74644712  .00000818  00000+0  12192-3 0  9998
2 55060  97.9189 102.2741 0013289  45.4773 314.7521 14.77411776166844
HUYGENS                 
1 55093U 23001CN  26036.85798256  .00018973  00000+0  51744-3 0  9996
2 55093  97.3421 104.0288 0009888 187.7992 172.3100 15.37448709172179
SHARJAHSAT-1            
1 55104U 23001CZ  26036.83464378  .00037758  00000+0  82992-3 0  9993
2 55104  97.3356 104.1571 0005725 209.4270 150.6657 15.43896466172194
HORUS 1                 
1 55690U 23025A   26036.85117348  .00013523  00000+0  56962-3 0  9995
2 55690  97.3589 114.1278 0001911 155.1623 204.9706 15.23463555164050
HORUS 2                 
1 55844U 23032A   26036.81975793  .00014559  00000+0  61297-3 0  9993
2 55844  97.3658 114.7844 0002827 150.6715 209.4681 15.23460978161484
GLOBAL-19               
1 55982U 23041B   26036.76039771  .00025443  00000+0  65972-3 0  9995
2 55982  42.0005 248.7014 0002864 300.7549  59.3008 15.38475295161682
BRO-9                   
1 56185U 23054H   26036.85134600  .00064668  00000+0  69758-3 0  9990
2 56185  97.3086 308.5625 0005292 122.1502 238.0271 15.63448884158413
ION SCV-010             
1 56192U 23054Q   26036.64785404  .00009627  00000+0  39010-3 0  9991
2 56192  97.3954 287.8090 0012049 315.0755  44.9507 15.24798026156148
GHOST-1                 
1 56195U 23054T   26036.20880366  .00130625  00000+0  86770-3 0  9997
2 56195  97.3063 311.3187 0006652 115.1230 245.0726 15.75046520158524
TELEOS-2                
1 56310U 23057C   26036.25312934  .00011230  00000+0  90283-3 0  9999
2 56310   9.9890  84.8158 0000726 273.5204  86.4926 14.96452594153007
SNIPE 4                 
1 56744U 23072B   26036.80036569  .00041814  00000+0  11617-2 0  9999
2 56744  97.5361 239.0615 0007249  76.1764 284.0285 15.36731337149897
SNIPE 2                 
1 56745U 23072C   26036.84452102  .00045870  00000+0  11495-2 0  9999
2 56745  97.5368 241.3686 0005966 101.8999 258.2916 15.39901231149988
2023-072G               
1 56749U 23072G   26036.87412045  .00050632  00000+0  11435-2 0  9994
2 56749  97.5027 240.1195 0005424  92.9036 267.2832 15.43023145150160
OTTER PUP               
1 56933U 23084B   26036.38488261  .00143583  00000+0  10216-2 0  9995
2 56933  97.5774 189.1961 0002971 325.9112  34.1961 15.73426461148404
GEISAT PRECURSOR        
1 56934U 23084C   26036.87564759  .00016650  00000+0  53365-3 0  9994
2 56934  97.6011 173.8887 0007205  91.8997 268.3069 15.32411843147404
BLACKJACK ACES-3        
1 56950U 23084U   26036.82354987  .00012995  00000+0  59478-3 0  9996
2 56950  97.6022 171.0574 0007025  84.3835 275.8201 15.20625201147228
BLACKJACK ACES-2        
1 56955U 23084Z   26036.83002835  .00016984  00000+0  77585-3 0  9995
2 56955  97.5999 171.1567 0004431 103.9403 256.2324 15.20641382147233
BLACKJACK ACES-1        
1 56956U 23084AA  26036.35693709  .00014869  00000+0  68010-3 0  9992
2 56956  97.5982 170.4769 0004058 105.6209 254.5474 15.20628229 96886
ION SCV-011             
1 56957U 23084AB  26036.51506049  .00010625  00000+0  40016-3 0  9993
2 56957  98.1312 211.7575 0008289 129.0546 231.1429 15.27281717145700
GHOST-3                 
1 56958U 23084AC  26036.33935613  .00027768  00000+0  63497-3 0  9991
2 56958  97.6015 178.4937 0007834  52.7084 307.4876 15.42767253147650
TOMORROW-R2             
1 56962U 23084AG  26036.35615066  .00099582  00000+0  96880-3 0  9990
2 56962  97.5873 186.9561 0004053  16.2509 343.8879 15.65953100148224
AFR-1                   
1 56964U 23084AJ  26036.85704777  .00011089  00000+0  41869-3 0  9998
2 56964  97.6057 170.6953 0012078  82.5336 277.7274 15.27123975147170
DROID.001               
1 56965U 23084AK  26036.37475145  .00410197  66572-4  12483-2 0  9993
2 56965  97.5766 191.4206 0005303 310.7092  49.3720 15.91984299148521
METEOR-M2 3             
1 57166U 23091A   26036.84801296  .00000036  00000+0  34535-4 0  9997
2 57166  98.6284  94.4020 0003966 176.6108 183.5098 14.24034360135826
UMKA 1 (RS40S)          
1 57172U 23091G   26036.82757531  .00010764  00000+0  51478-3 0  9997
2 57172  97.5245  96.0623 0012465 212.2991 147.7481 15.19104784144052
2023-091H               
1 57173U 23091H   26036.80839998  .00018076  00000+0  71464-3 0  9995
2 57173  97.5234  99.1156 0009903 210.3186 149.7480 15.25495783144256
2023-091J               
1 57174U 23091J   26036.81569661  .00006761  00000+0  38700-3 0  9998
2 57174  97.5257  91.7458 0012229 237.8560 122.1485 15.12900052143761
CUBEBEL 2 (EU11S)       
1 57175U 23091K   26036.84277398  .00019710  00000+0  77201-3 0  9992
2 57175  97.5238  99.0914 0009902 212.2615 147.8019 15.25788485144251
SITRO-AIS 5 (KATYS)     
1 57176U 23091L   26036.82396909  .00023862  00000+0  92267-3 0  9993
2 57176  97.5245  99.6711 0011768 200.3579 159.7191 15.26157990144289
ZORKIY-2M 1             
1 57177U 23091M   26036.87793475  .00015449  00000+0  73964-3 0  9993
2 57177  97.5284  96.3147 0013170 208.9281 151.1224 15.18969815144059
CUBESX-HSE 3 (RS42S)    
1 57178U 23091N   26036.86962953  .00030171  00000+0  11154-2 0  9993
2 57178  97.5272 101.0299 0011436 190.9794 169.1197 15.27602851144356
MONITOR-3 (RS58S)       
1 57180U 23091Q   26036.82983572  .00022544  00000+0  90483-3 0  9990
2 57180  97.5268  99.4719 0012113 196.4393 163.6453 15.24920767144259
MONITOR-4 (RS57S)       
1 57182U 23091S   26036.75106950  .00024087  00000+0  96415-3 0  9996
2 57182  97.5261  99.3555 0012046 197.2762 162.8067 15.24997481144243
MONITOR-2 (RS39S)       
1 57184U 23091U   26036.82847259  .00011245  00000+0  56298-3 0  9997
2 57184  97.5268  95.9618 0010930 202.7401 157.3350 15.17513020144021
SVYATOBOR 1 (RS60S)     
1 57187U 23091X   26036.86482943  .00019723  00000+0  81226-3 0  9997
2 57187  97.5273 100.0745 0009755 186.6927 173.4181 15.24105912144290
HORS 1                  
1 57188U 23091Y   26036.85754037  .00020464  00000+0  84125-3 0  9998
2 57188  97.5253  99.8495 0009278 186.2831 173.8292 15.24163602144293
VIZARD-METEO (RS38S)    
1 57189U 23091Z   26036.89136451  .00034857  00000+0  11421-2 0  9996
2 57189  97.5260 104.0768 0008216 170.8415 189.2977 15.31538087144564
NANOZOND 1 (RS49S)      
1 57190U 23091AA  26036.85306876  .00208517  00000+0  21409-2 0  9997
2 57190  97.5155 114.8140 0003365 167.0570 193.0776 15.64243024145282
SITRO-AIS 6 (CHIRKIN)   
1 57192U 23091AC  26036.80676212  .00014664  00000+0  60816-3 0  9992
2 57192  97.5248  99.3675 0011972 199.4003 160.6779 15.23913281144264
SITRO-AIS 8 (ANOKHIN)   
1 57193U 23091AD  26036.85208280  .00032687  00000+0  11828-2 0  9997
2 57193  97.5238 100.8111 0011115 197.1896 162.8968 15.28294448144368
SITRO-AIS 7 (FARTUSHNIY)
1 57194U 23091AE  26036.85215168  .00013294  00000+0  55532-3 0  9995
2 57194  97.5248  99.2956 0011726 200.5367 159.5400 15.23697530144265
AVION KALUGA 650        
1 57195U 23091AF  26036.86042256  .00012542  00000+0  60552-3 0  9996
2 57195  97.5280  96.9912 0010179 201.0014 159.0803 15.18758742144083
HORS 2                  
1 57196U 23091AG  26036.85203204  .00028929  00000+0  10484-2 0  9992
2 57196  97.5265 102.3289 0008736 180.0453 180.0787 15.28292082144441
A-SEANSAT-PG1           
1 57197U 23091AH  26036.88410848  .00036871  00000+0  11860-2 0  9994
2 57197  97.5254 104.0299 0008102 178.1822 181.9450 15.32119377144576
SITRO-AIS 10 (BURDAEV)  
1 57199U 23091AK  26036.85497787  .00032959  00000+0  10211-2 0  9992
2 57199  97.5251 104.6695 0007758 173.0434 187.0917 15.33348881144604
SITRO-AIS 9 (SHCHUKIN)  
1 57201U 23091AM  26036.84573442  .00038617  00000+0  12081-2 0  9992
2 57201  97.5251 104.4774 0007803 174.0976 186.0359 15.33001198144591
UTMN 2 (RS27S)          
1 57203U 23091AP  26036.83103372  .00029356  00000+0  10568-2 0  9992
2 57203  97.5263 102.4621 0008833 176.0017 184.1295 15.28506236144457
SITRO-AIS 12 (SMIRENNIY)
1 57204U 23091AQ  26036.85915337  .00039342  00000+0  12212-2 0  9991
2 57204  97.5260 104.8833 0007749 167.3453 192.7985 15.33246476144610
SITRO-AIS 11 (SHEFFER)  
1 57208U 23091AU  26036.83908706  .00039385  00000+0  12105-2 0  9993
2 57208  97.5258 105.0379 0007692 167.0156 193.1285 15.33561664144621
